NORAD_CAT_ID,OBJECT_NAME,OBJECT_TYPE,EPOCH,MEAN_MOTION,ECCENTRICITY,INCLINATION,RA_OF_ASC_NODE,ARG_OF_PERICENTER,MEAN_ANOMALY,BSTAR,MEAN_MOTION_DOT,MEAN_MOTION_DDOT,TLE_LINE0,TLE_LINE1,TLE_LINE2,SEMIMAJOR_AXIS,PERIOD,APOGEE,PERIGEE,DECAYED
52499.0,STARLINK-3894,PAYLOAD,2022-07-18 14:00:01,15.58696613,0.0001495,53.2176,264.5373,52.4336,147.7475,-0.014845,-0.01058544,0.0,0 STARLINK-3894,1 52499U 22049BA  22199.58334491 -.01058544  00000-0 -14845-1 0  9998,2 52499  53.2176 264.5373 0001495  52.4336 147.7475 15.58696613  1306,6769.565,92.385,392.442,390.418,0.0
52499.0,STARLINK-3894,PAYLOAD,2022-07-18 16:00:00,15.58507939,0.0001277,53.2173,264.1345,49.9326,258.0928,-0.0149729999999999,-0.01059831,0.0,0 STARLINK-3894,1 52499U 22049BA  22199.66667824 -.01059831  00000-0 -14973-1 0  9998,2 52499  53.2173 264.1345 0001277  49.9326 258.0928 15.58507939 11690,6770.111999999999,92.396,392.841,391.112,0.0
52499.0,STARLINK-3894,PAYLOAD,2022-07-18 22:00:00,15.57941469,0.0001168,53.2175,262.9257,74.0585,197.1595,-0.015397,-0.01066011,0.0,0 STARLINK-3894,1 52499U 22049BA  22199.91667824 -.01066011  00000-0 -15397-1 0  9995,2 52499  53.2175 262.9257 0001168  74.0585 197.1595 15.57941469  1304,6771.753000000002,92.43,394.409,392.827,0.0
52499.0,STARLINK-3894,PAYLOAD,2022-07-19 14:00:01,15.56418899,0.0001239,53.2175,259.7133,53.5437,357.0108,-0.0162,-0.01059737,0.0,0 STARLINK-3894,1 52499U 22049BA  22200.58334491 -.01059737  00000-0 -16200-1 0  9993,2 52499  53.2175 259.7133 0001239  53.5437 357.0108 15.56418899 11840,6776.168000000002,92.52,398.87300000000016,397.194,0.0
52499.0,STARLINK-3894,PAYLOAD,2022-07-19 22:00:00,15.55659691,0.0001286999999999,53.2176,258.1071,58.1181,60.7367,-0.016668,-0.01059888,0.0,0 STARLINK-3894,1 52499U 22049BA  22200.91667824 -.01059888  00000-0 -16668-1 0  9994,2 52499  53.2176 258.1071 0001287  58.1181  60.7367 15.55659691  1306,6778.373000000001,92.565,401.11,399.365,0.0
52499.0,STARLINK-3894,PAYLOAD,2022-07-20 06:00:00,15.54899849,0.0001514,53.2178,256.5048,51.9405,134.3006,-0.017126,-0.01058903,0.0,0 STARLINK-3894,1 52499U 22049BA  22201.25001157 -.01058903  00000-0 -17126-1 0  9990,2 52499  53.2178 256.5048 0001514  51.9405 134.3006 15.54899849 11946,6780.581,92.61,403.472,401.419,0.0
52499.0,STARLINK-3894,PAYLOAD,2022-07-20 14:00:01,15.54138536,0.0001252999999999,53.2176,254.9057,71.4469,181.2677,-0.017552,-0.01055447,0.0,0 STARLINK-3894,1 52499U 22049BA  22201.58334491 -.01055447  00000-0 -17552-1 0  9999,2 52499  53.2176 254.9057 0001253  71.4469 181.2677 15.54138536  1306,6782.795,92.656,405.51,403.81,0.0
52499.0,STARLINK-3894,PAYLOAD,2022-07-20 22:00:01,15.53382451,0.0001174,53.2176,253.3049,59.4162,258.9245,-0.018162,-0.01061624,0.0,0 STARLINK-3894,1 52499U 22049BA  22201.91668981 -.01061624  00000-0 -18162-1 0  9992,2 52499  53.2176 253.3049 0001174  59.4162 258.9245 15.53382451 12051,6784.996,92.701,407.657,406.064,0.0
52499.0,STARLINK-3894,PAYLOAD,2022-07-21 14:00:01,15.51859189,0.0001230999999999,53.2174,250.1145,60.5018,26.2235,-0.019039,-0.01053719,0.0,0 STARLINK-3894,1 52499U 22049BA  22202.58335648 -.01053719  00000-0 -19039-1 0  9997,2 52499  53.2174 250.1145 0001231  60.5018  26.2235 15.51859189  1304,6789.435,92.792,412.136,410.464,0.0
52499.0,STARLINK-3894,PAYLOAD,2022-07-21 22:00:00,15.51094487,0.0001250999999999,53.2175,248.5187,55.6687,93.8177,-0.019361,-0.01043417,0.0,0 STARLINK-3894,1 52499U 22049BA  22202.91667824 -.01043417  00000-0 -19361-1 0  9990,2 52499  53.2175 248.5187 0001251  55.6687  93.8177 15.51094487  1308,6791.666,92.838,414.381,412.682,0.0
52499.0,STARLINK-3894,PAYLOAD,2022-07-22 06:00:00,15.5024503,0.0001256,53.2175,246.9259,54.0927,157.3117,-0.0084861,-0.00460658,0.0,0 STARLINK-3894,1 52499U 22049BA  22203.25001157 -.00460658  00000-0 -84861-2 0  9996,2 52499  53.2175 246.9259 0001256  54.0927 157.3117 15.50245030 12252,6794.147,92.889,416.865,415.159,0.0
52499.0,STARLINK-3894,PAYLOAD,2022-07-22 12:00:00,15.49884462,0.0001331999999999,53.2175,245.7325,52.4096,114.9096,1.4586e-05,3.76e-06,0.0,0 STARLINK-3894,1 52499U 22049BA  22203.50001157  .00000376  00000-0  14586-4 0  9998,2 52499  53.2175 245.7325 0001332  52.4096 114.9096 15.49884462 12292,6795.201,92.91,417.971,416.161,0.0
52499.0,STARLINK-3894,PAYLOAD,2022-07-22 22:00:00,15.49884006,0.0001269,53.2174,243.7393,61.5146,271.9485,4.2325e-05,1.951e-05,0.0,0 STARLINK-3894,1 52499U 22049BA  22203.91667824  .00001951  00000-0  42325-4 0  9994,2 52499  53.2174 243.7393 0001269  61.5146 271.9485 15.49884006  1300,6795.2019999999975,92.91,417.929,416.205,0.0
52499.0,STARLINK-3894,PAYLOAD,2022-07-23 08:00:01,15.49877131,0.000174,53.2172,241.7342,60.5832,78.8142,-0.00023398,-0.00013705,0.0,0 STARLINK-3894,1 52499U 22049BA  22204.33334491 -.00013705  00000-0 -23398-3 0  9992,2 52499  53.2172 241.7342 0001740  60.5832  78.8142 15.49877131 12425,6795.222,92.911,418.27,415.905,0.0
52499.0,STARLINK-3894,PAYLOAD,2022-07-23 14:00:01,15.49843354,0.0001795,53.2172,240.5401,55.6936,39.4228,0.00083555,0.00047187,0.0,0 STARLINK-3894,1 52499U 22049BA  22204.58335648  .00047187  00000-0  83555-3 0  9994,2 52499  53.2172 240.5401 0001795  55.6936  39.4228 15.49843354  1301,6795.321,92.913,418.406,415.966,0.0
52499.0,STARLINK-3894,PAYLOAD,2022-07-23 22:00:00,15.49850068,0.0001646,53.2172,238.9454,61.6563,94.2863,0.00071702,0.00040403,0.0,0 STARLINK-3894,1 52499U 22049BA  22204.91667824  .00040403  00000-0  71702-3 0  9990,2 52499  53.2172 238.9454 0001646  61.6563  94.2863 15.49850068  1302,6795.301,92.912,418.285,416.048,0.0
52499.0,STARLINK-3894,PAYLOAD,2022-07-24 06:00:00,15.49897576,0.0001823,53.217,237.3536,61.4198,155.4217,-0.00040309,-0.00023272,0.0,0 STARLINK-3894,1 52499U 22049BA  22205.25001157 -.00023272  00000-0 -40309-3 0  9995,2 52499  53.2170 237.3536 0001823  61.4198 155.4217 15.49897576 12561,6795.1619999999975,92.909,418.266,415.789,0.0
52499.0,STARLINK-3894,PAYLOAD,2022-07-24 14:00:01,15.49704986,0.0001512,53.2167,235.7713,53.2288,224.4924,0.011893,0.00725871,0.0,0 STARLINK-3894,1 52499U 22049BA  22205.58334491  .00725871  00000-0  11893-1 0  9997,2 52499  53.2167 235.7713 0001512  53.2288 224.4924 15.49704986  1304,6795.725,92.921,418.61800000000005,416.56300000000016,0.0
52499.0,STARLINK-3894,PAYLOAD,2022-07-24 22:00:00,15.50216299,0.0001419,53.218,234.1848,51.4744,287.2786,-0.026424,-0.0136485999999999,0.0,0 STARLINK-3894,1 52499U 22049BA  22205.91667824 -.01364860  00000-0 -26424-1 0  9999,2 52499  53.2180 234.1848 0001419  51.4744 287.2786 15.50216299  1304,6794.231,92.89,417.06,415.132,0.0
52499.0,STARLINK-3894,PAYLOAD,2022-07-25 06:00:00,15.49241213,0.000139,53.2177,232.5963,44.9767,354.4682,-0.021043,-0.01059857,0.0,0 STARLINK-3894,1 52499U 22049BA  22206.25001157 -.01059857  00000-0 -21043-1 0  9997,2 52499  53.2177 232.5963 0001390  44.9767 354.4682 15.49241213 12722,6797.081999999999,92.949,419.891,418.002,0.0
52499.0,STARLINK-3894,PAYLOAD,2022-07-25 14:00:01,15.48480502,0.0001456,53.2172,231.0099,46.6089,52.5084,-0.021553,-0.01057032,0.0,0 STARLINK-3894,1 52499U 22049BA  22206.58334491 -.01057032  00000-0 -21553-1 0  9992,2 52499  53.2172 231.0099 0001456  46.6089  52.5084 15.48480502  1309,6799.307,92.994,422.162,420.182,0.0
52499.0,STARLINK-3894,PAYLOAD,2022-07-25 22:00:00,15.47719922,0.0001483,53.2174,229.4229,50.1903,107.6884,-0.022112,-0.01055941,0.0,0 STARLINK-3894,1 52499U 22049BA  22206.91667824 -.01055941  00000-0 -22112-1 0  9997,2 52499  53.2174 229.4229 0001483  50.1903 107.6884 15.47719922  1302,6801.535,93.04,424.408,422.391,0.0
52499.0,STARLINK-3894,PAYLOAD,2022-07-26 06:00:00,15.46959494,0.0001531999999999,53.2175,227.8407,53.0505,162.6748,-0.02266,-0.01053924,0.0,0 STARLINK-3894,1 52499U 22049BA  22207.25001157 -.01053924  00000-0 -22660-1 0  9993,2 52499  53.2175 227.8407 0001532  53.0505 162.6748 15.46959494 12871,6803.764,93.086,426.671,424.586,0.0
52499.0,STARLINK-3894,PAYLOAD,2022-07-26 14:00:01,15.46203224,0.0001365,53.2171,226.2596,53.6479,219.0102,-0.023375,-0.01058446,0.0,0 STARLINK-3894,1 52499U 22049BA  22207.58334491 -.01058446  00000-0 -23375-1 0  9997,2 52499  53.2171 226.2596 0001365  53.6479 219.0102 15.46203224  1309,6805.982,93.131,428.776,426.918,0.0
52499.0,STARLINK-3894,PAYLOAD,2022-07-26 22:00:00,15.45440338,0.000127,53.2174,224.6779,51.4771,277.2055,-0.023885,-0.01053804,0.0,0 STARLINK-3894,1 52499U 22049BA  22207.91667824 -.01053804  00000-0 -23885-1 0  9992,2 52499  53.2174 224.6779 0001270  51.4771 277.2055 15.45440338 12980,6808.222,93.177,430.951,429.222,0.0
52499.0,STARLINK-3894,PAYLOAD,2022-07-27 14:00:01,15.43923395,0.000138,53.2172,221.5255,48.9709,29.0153,-0.025212,-0.01055751,0.0,0 STARLINK-3894,1 52499U 22049BA  22208.58334491 -.01055751  00000-0 -25212-1 0  9996,2 52499  53.2172 221.5255 0001380  48.9709  29.0153 15.43923395  1300,6812.68,93.269,435.485,433.605,0.0
52499.0,STARLINK-3894,PAYLOAD,2022-07-27 16:00:00,15.43734069,0.0001452,53.2174,221.1312,56.4669,124.9262,-0.025422,-0.0105753,0.0,0 STARLINK-3894,1 52499U 22049BA  22208.66667824 -.01057530  00000-0 -25422-1 0  9994,2 52499  53.2174 221.1312 0001452  56.4669 124.9262 15.43734069 13094,6813.236999999999,93.28,436.092,434.11300000000006,0.0
52499.0,STARLINK-3894,PAYLOAD,2022-07-27 22:00:00,15.4316365,0.0001568,53.2174,219.9493,45.1326,86.139,-0.025898,-0.01056734,0.0,0 STARLINK-3894,1 52499U 22049BA  22208.91667824 -.01056734  00000-0 -25898-1 0  9994,2 52499  53.2174 219.9493 0001568  45.1326  86.1390 15.43163650  1306,6814.916,93.315,437.85,435.713,0.0
52499.0,STARLINK-3894,PAYLOAD,2022-07-28 14:00:01,15.4164636,0.0001440999999999,53.2172,216.8077,56.0445,179.0548,-0.027312,-0.01073425,0.0,0 STARLINK-3894,1 52499U 22049BA  22209.58334491 -.01073425  00000-0 -27312-1 0  9998,2 52499  53.2172 216.8077 0001441  56.0445 179.0548 15.41646360  1300,6819.387,93.407,442.235,440.269,0.0
